[{"OBJECT_NAME":"SL-14 R/B","OBJECT_ID":"1986-006B","EPOCH":"2026-03-10T14:19:56.900640","MEAN_MOTION":14.86816447,"ECCENTRICITY":0.007505,"INCLINATION":82.5234,"RA_OF_ASC_NODE":258.8829,"ARG_OF_PERICENTER":269.7144,"MEAN_ANOMALY":89.5473,"EPHEMERIS_TYPE":0,"CLASSIFICATION_TYPE":"U","NORAD_CAT_ID":16496,"ELEMENT_SET_NO":999,"REV_AT_EPOCH":14934,"BSTAR":8.6122e-5,"MEAN_MOTION_DOT":8.33e-6,"MEAN_MOTION_DDOT":0},{"OBJECT_NAME":"COSMOS 1743","OBJECT_ID":"1986-034A","EPOCH":"2026-03-10T17:36:15.721056","MEAN_MOTION":15.5862841,"ECCENTRICITY":0.0001527,"INCLINATION":82.5295,"RA_OF_ASC_NODE":72.7357,"ARG_OF_PERICENTER":282.4876,"MEAN_ANOMALY":77.6209,"EPHEMERIS_TYPE":0,"CLASSIFICATION_TYPE":"U","NORAD_CAT_ID":16719,"ELEMENT_SET_NO":999,"REV_AT_EPOCH":18041,"BSTAR":0.00050076,"MEAN_MOTION_DOT":0.00038542,"MEAN_MOTION_DDOT":0},{"OBJECT_NAME":"SL-14 R/B","OBJECT_ID":"1986-046B","EPOCH":"2026-03-10T13:09:27.287136","MEAN_MOTION":14.85591236,"ECCENTRICITY":0.0022025,"INCLINATION":82.4783,"RA_OF_ASC_NODE":79.3703,"ARG_OF_PERICENTER":222.3904,"MEAN_ANOMALY":137.5612,"EPHEMERIS_TYPE":0,"CLASSIFICATION_TYPE":"U","NORAD_CAT_ID":16792,"ELEMENT_SET_NO":999,"REV_AT_EPOCH":12653,"BSTAR":6.2825e-5,"MEAN_MOTION_DOT":5.7e-6,"MEAN_MOTION_DDOT":0},{"OBJECT_NAME":"SL-14 R/B","OBJECT_ID":"1986-055B","EPOCH":"2026-03-10T21:38:02.352768","MEAN_MOTION":14.8564385,"ECCENTRICITY":0.0018077,"INCLINATION":82.52,"RA_OF_ASC_NODE":125.5353,"ARG_OF_PERICENTER":332.4033,"MEAN_ANOMALY":200.5015,"EPHEMERIS_TYPE":0,"CLASSIFICATION_TYPE":"U","NORAD_CAT_ID":16882,"ELEMENT_SET_NO":999,"REV_AT_EPOCH":11954,"BSTAR":5.3386e-5,"MEAN_MOTION_DOT":4.88e-6,"MEAN_MOTION_DDOT":0},{"OBJECT_NAME":"AJISAI (EGS)","OBJECT_ID":"1986-061A","EPOCH":"2026-03-10T19:47:01.000032","MEAN_MOTION":12.44515656,"ECCENTRICITY":0.001127,"INCLINATION":50.0081,"RA_OF_ASC_NODE":89.8586,"ARG_OF_PERICENTER":289.9401,"MEAN_ANOMALY":70.0311,"EPHEMERIS_TYPE":0,"CLASSIFICATION_TYPE":"U","NORAD_CAT_ID":16908,"ELEMENT_SET_NO":999,"REV_AT_EPOCH":46814,"BSTAR":-5.0688e-5,"MEAN_MOTION_DOT":-1.05e-6,"MEAN_MOTION_DDOT":0},{"OBJECT_NAME":"SL-14 R/B","OBJECT_ID":"1987-024B","EPOCH":"2026-03-10T12:20:08.705760","MEAN_MOTION":14.86132862,"ECCENTRICITY":0.0016704,"INCLINATION":82.5247,"RA_OF_ASC_NODE":91.9888,"ARG_OF_PERICENTER":256.9495,"MEAN_ANOMALY":102.9857,"EPHEMERIS_TYPE":0,"CLASSIFICATION_TYPE":"U","NORAD_CAT_ID":17567,"ELEMENT_SET_NO":999,"REV_AT_EPOCH":8825,"BSTAR":5.9325e-5,"MEAN_MOTION_DOT":5.45e-6,"MEAN_MOTION_DDOT":0},{"OBJECT_NAME":"COSMOS 1833","OBJECT_ID":"1987-027A","EPOCH":"2026-03-10T20:25:55.044192","MEAN_MOTION":14.13054515,"ECCENTRICITY":0.0024215,"INCLINATION":70.9221,"RA_OF_ASC_NODE":323.5777,"ARG_OF_PERICENTER":212.9036,"MEAN_ANOMALY":147.0579,"EPHEMERIS_TYPE":0,"CLASSIFICATION_TYPE":"U","NORAD_CAT_ID":17589,"ELEMENT_SET_NO":999,"REV_AT_EPOCH":1048,"BSTAR":-7.5525e-5,"MEAN_MOTION_DOT":-1.9e-6,"MEAN_MOTION_DDOT":0},{"OBJECT_NAME":"SL-16 R/B","OBJECT_ID":"1987-027B","EPOCH":"2026-03-10T19:43:09.638976","MEAN_MOTION":14.1716604,"ECCENTRICITY":0.0003397,"INCLINATION":71.0012,"RA_OF_ASC_NODE":274.1101,"ARG_OF_PERICENTER":140.265,"MEAN_ANOMALY":219.8723,"EPHEMERIS_TYPE":0,"CLASSIFICATION_TYPE":"U","NORAD_CAT_ID":17590,"ELEMENT_SET_NO":999,"REV_AT_EPOCH":1550,"BSTAR":9.1856e-5,"MEAN_MOTION_DOT":1.37e-6,"MEAN_MOTION_DDOT":0},{"OBJECT_NAME":"SL-14 R/B","OBJECT_ID":"1987-038B","EPOCH":"2026-03-10T02:31:29.121888","MEAN_MOTION":14.8536967,"ECCENTRICITY":0.00197181,"INCLINATION":82.5,"RA_OF_ASC_NODE":296.4165,"ARG_OF_PERICENTER":159.1105,"MEAN_ANOMALY":201.0922,"EPHEMERIS_TYPE":0,"CLASSIFICATION_TYPE":"U","NORAD_CAT_ID":17912,"ELEMENT_SET_NO":999,"REV_AT_EPOCH":7929,"BSTAR":5.6876285e-5,"MEAN_MOTION_DOT":5.15e-6,"MEAN_MOTION_DDOT":0},{"OBJECT_NAME":"COSMOS 1844","OBJECT_ID":"1987-041A","EPOCH":"2026-03-10T21:14:47.396256","MEAN_MOTION":14.14551823,"ECCENTRICITY":0.0030084,"INCLINATION":70.9,"RA_OF_ASC_NODE":31.6528,"ARG_OF_PERICENTER":15.9814,"MEAN_ANOMALY":344.225,"EPHEMERIS_TYPE":0,"CLASSIFICATION_TYPE":"U","NORAD_CAT_ID":17973,"ELEMENT_SET_NO":999,"REV_AT_EPOCH":375,"BSTAR":-6.1725e-5,"MEAN_MOTION_DOT":-1.67e-6,"MEAN_MOTION_DDOT":0},{"OBJECT_NAME":"SL-14 R/B","OBJECT_ID":"1987-055B","EPOCH":"2026-03-10T19:45:01.285056","MEAN_MOTION":14.85631015,"ECCENTRICITY":0.0021067,"INCLINATION":82.503,"RA_OF_ASC_NODE":347.9636,"ARG_OF_PERICENTER":14.1244,"MEAN_ANOMALY":346.0556,"EPHEMERIS_TYPE":0,"CLASSIFICATION_TYPE":"U","NORAD_CAT_ID":18153,"ELEMENT_SET_NO":999,"REV_AT_EPOCH":7010,"BSTAR":7.223e-5,"MEAN_MOTION_DOT":6.52e-6,"MEAN_MOTION_DDOT":0},{"OBJECT_NAME":"COSMOS 1867","OBJECT_ID":"1987-060A","EPOCH":"2026-03-10T20:07:26.590944","MEAN_MOTION":14.31503229,"ECCENTRICITY":0.0014496,"INCLINATION":65.0111,"RA_OF_ASC_NODE":303.4885,"ARG_OF_PERICENTER":278.7105,"MEAN_ANOMALY":81.2338,"EPHEMERIS_TYPE":0,"CLASSIFICATION_TYPE":"U","NORAD_CAT_ID":18187,"ELEMENT_SET_NO":999,"REV_AT_EPOCH":2010,"BSTAR":2.9847e-5,"MEAN_MOTION_DOT":-2.1e-7,"MEAN_MOTION_DDOT":0},{"OBJECT_NAME":"SL-14 R/B","OBJECT_ID":"1988-001B","EPOCH":"2026-03-10T19:38:22.832448","MEAN_MOTION":14.85529398,"ECCENTRICITY":0.0016908,"INCLINATION":82.5155,"RA_OF_ASC_NODE":194.2987,"ARG_OF_PERICENTER":231.7303,"MEAN_ANOMALY":128.2393,"EPHEMERIS_TYPE":0,"CLASSIFICATION_TYPE":"U","NORAD_CAT_ID":18749,"ELEMENT_SET_NO":999,"REV_AT_EPOCH":4219,"BSTAR":7.9427e-5,"MEAN_MOTION_DOT":7.11e-6,"MEAN_MOTION_DDOT":0},{"OBJECT_NAME":"COSMOS 1933","OBJECT_ID":"1988-020A","EPOCH":"2026-03-10T18:41:36.684384","MEAN_MOTION":15.17994354,"ECCENTRICITY":0.0003986,"INCLINATION":82.5101,"RA_OF_ASC_NODE":249.8336,"ARG_OF_PERICENTER":177.0075,"MEAN_ANOMALY":183.1183,"EPHEMERIS_TYPE":0,"CLASSIFICATION_TYPE":"U","NORAD_CAT_ID":18958,"ELEMENT_SET_NO":999,"REV_AT_EPOCH":5039,"BSTAR":0.0002781,"MEAN_MOTION_DOT":5.682e-5,"MEAN_MOTION_DDOT":0},{"OBJECT_NAME":"SL-3 R/B","OBJECT_ID":"1988-032B","EPOCH":"2026-03-10T20:26:31.320096","MEAN_MOTION":15.1992568,"ECCENTRICITY":0.0024496,"INCLINATION":97.5196,"RA_OF_ASC_NODE":53.0985,"ARG_OF_PERICENTER":227.1614,"MEAN_ANOMALY":132.7563,"EPHEMERIS_TYPE":0,"CLASSIFICATION_TYPE":"U","NORAD_CAT_ID":19046,"ELEMENT_SET_NO":999,"REV_AT_EPOCH":5228,"BSTAR":0.00028555,"MEAN_MOTION_DOT":6.115e-5,"MEAN_MOTION_DDOT":0},{"OBJECT_NAME":"SL-16 R/B","OBJECT_ID":"1988-039B","EPOCH":"2026-03-10T11:21:54.288864","MEAN_MOTION":14.19615489,"ECCENTRICITY":0.002283,"INCLINATION":71.0135,"RA_OF_ASC_NODE":66.8899,"ARG_OF_PERICENTER":333.2462,"MEAN_ANOMALY":26.7483,"EPHEMERIS_TYPE":0,"CLASSIFICATION_TYPE":"U","NORAD_CAT_ID":19120,"ELEMENT_SET_NO":999,"REV_AT_EPOCH":95849,"BSTAR":1.1801e-5,"MEAN_MOTION_DOT":-2.3e-7,"MEAN_MOTION_DDOT":0},{"OBJECT_NAME":"COSMOS 1953","OBJECT_ID":"1988-050A","EPOCH":"2026-03-10T17:43:28.413120","MEAN_MOTION":15.28547411,"ECCENTRICITY":0.0012536,"INCLINATION":82.5103,"RA_OF_ASC_NODE":157.1921,"ARG_OF_PERICENTER":119.2292,"MEAN_ANOMALY":241.0203,"EPHEMERIS_TYPE":0,"CLASSIFICATION_TYPE":"U","NORAD_CAT_ID":19210,"ELEMENT_SET_NO":999,"REV_AT_EPOCH":3794,"BSTAR":0.00031844,"MEAN_MOTION_DOT":8.896e-5,"MEAN_MOTION_DDOT":0}]
