SL-14 R/B               
1 16496U 86006B   26069.59718635  .00000833  00000+0  86122-4 0  9999
2 16496  82.5234 258.8829 0075050 269.7144  89.5473 14.86816447149340
COSMOS 1743             
1 16719U 86034A   26069.73351529  .00038542  00000+0  50076-3 0  9995
2 16719  82.5295  72.7357 0001527 282.4876  77.6209 15.58628410180415
SL-14 R/B               
1 16792U 86046B   26069.54823249  .00000570  00000+0  62825-4 0  9997
2 16792  82.4783  79.3703 0022025 222.3904 137.5612 14.85591236126537
SL-14 R/B               
1 16882U 86055B   26069.90141612  .00000488  00000+0  53386-4 0  9994
2 16882  82.5200 125.5353 0018077 332.4033 200.5015 14.85643850119546
AJISAI (EGS)            
1 16908U 86061A   26069.82431713 -.00000105  00000+0 -50688-4 0  9995
2 16908  50.0081  89.8586 0011270 289.9401  70.0311 12.44515656468142
SL-14 R/B               
1 17567U 87024B   26069.51398965  .00000545  00000+0  59325-4 0  9997
2 17567  82.5247  91.9888 0016704 256.9495 102.9857 14.86132862 88253
COSMOS 1833             
1 17589U 87027A   26069.85133153 -.00000190  00000+0 -75525-4 0  9995
2 17589  70.9221 323.5777 0024215 212.9036 147.0579 14.13054515 10489
SL-16 R/B               
1 17590U 87027B   26069.82163934  .00000137  00000+0  91856-4 0  9998
2 17590  71.0012 274.1101 0003397 140.2650 219.8723 14.17166040 15504
SL-14 R/B               
1 17912U 87038B   26069.10519817  .00000515  00000+0  56876-4 0  9997
2 17912  82.5000 296.4165 0019718 159.1105 201.0922 14.85369670 79290
COSMOS 1844             
1 17973U 87041A   26069.88527079 -.00000167  00000+0 -61725-4 0  9996
2 17973  70.9000  31.6528 0030084  15.9814 344.2250 14.14551823  3752
SL-14 R/B               
1 18153U 87055B   26069.82293154  .00000652  00000+0  72230-4 0  9990
2 18153  82.5030 347.9636 0021067  14.1244 346.0556 14.85631015 70109
COSMOS 1867             
1 18187U 87060A   26069.83850221 -.00000021  00000+0  29847-4 0  9995
2 18187  65.0111 303.4885 0014496 278.7105  81.2338 14.31503229 20104
SL-14 R/B               
1 18749U 88001B   26069.81831982  .00000711  00000+0  79427-4 0  9990
2 18749  82.5155 194.2987 0016908 231.7303 128.2393 14.85529398 42198
COSMOS 1933             
1 18958U 88020A   26069.77889681  .00005682  00000+0  27810-3 0  9997
2 18958  82.5101 249.8336 0003986 177.0075 183.1183 15.17994354 50398
SL-3 R/B                
1 19046U 88032B   26069.85175139  .00006115  00000+0  28555-3 0  9993
2 19046  97.5196  53.0985 0024496 227.1614 132.7563 15.19925680 52287
SL-16 R/B               
1 19120U 88039B   26069.47354501 -.00000023  00000+0  11801-4 0  9993
2 19120  71.0135  66.8899 0022830 333.2462  26.7483 14.19615489958499
COSMOS 1953             
1 19210U 88050A   26069.73852330  .00008896  00000+0  31844-3 0  9991
2 19210  82.5103 157.1921 0012536 119.2292 241.0203 15.28547411 37946
